[
    {
        "Altitude(m)": 622205.8892921996,
        "Argument of Periapsis(deg)": 0.0,
        "Eccentricity": 0.0,
        "Inclination(deg)": 60.0,
        "Latitude(deg)": -52.162495587030776,
        "Longitude(deg)": -137.29969844197498,
        "Mean Anomaly(deg)": 245.4545,
        "RAAN(deg)": 95.0,
        "Satellite Name": "Test1 433",
        "Satellite Number": 433,
        "Semi-Major Axis(m)": 6980739.136638005,
        "Time(s)": 0
    },
    {
        "Altitude(m)": 622344.7961176973,
        "Argument of Periapsis(deg)": 0.00010418945913296404,
        "Eccentricity": 0.0,
        "Inclination(deg)": 60.0,
        "Latitude(deg)": -52.52007615965972,
        "Longitude(deg)": -136.51848620909573,
        "Mean Anomaly(deg)": 246.07460614546184,
        "RAAN(deg)": 94.99957995086027,
        "Satellite Name": "Test1 433",
        "Satellite Number": 433,
        "Semi-Major Axis(m)": 6980739.136638005,
        "Time(s)": 10
    }
]